satname,norad_id,inclination_deg,eccentricity,mean_motion_rev_per_day,perigee_km,apogee_km,l1,l2
STARLINK-1316,45415,53.1549,0.0007042,15.38002648,447.20652446486383,456.82611239854214,1 45415U 20019BH  26152.06771437  .00095638  00000+0  24980-2 0  9997,2 45415  53.1549  99.7300 0007042  47.6605 312.4994 15.38002648342791
STARLINK-1286,45417,53.046,0.0001234,15.63274583,377.3718644537803,379.0393298067529,1 45417U 20019BK  26152.02723881  .00058223  00000+0  62432-3 0  9999,2 45417  53.0460  87.7426 0001234 150.7764 209.3319 15.63274583343196
STARLINK-1308,45419,53.0459,0.0007848,15.65114849,367.6102550918149,378.20669607028594,1 45419U 20019BM  26152.25309004  .00048676  00000+0  48625-3 0  9992,2 45419  53.0459 106.1276 0007848  27.8802 332.2632 15.65114849342709
STARLINK-1329,45531,53.0426,0.0004033,15.72238919,349.7851884525826,355.21411997787345,1 45531U 20025A   26152.08414907  .00075446  00000+0  55927-3 0  9992,2 45531  53.0426  31.0400 0004033 120.7976 239.3439 15.72238919338521
STARLINK-1338,45532,53.0452,0.0003821,15.67113165,364.5907768692223,369.74553907094287,1 45532U 20025B   26152.08650525  .00057837  00000+0  53234-3 0  9994,2 45532  53.0452  37.4098 0003821  87.5214 272.6238 15.67113165338439
STARLINK-1350,45535,53.0727,0.0001649,15.38083132,450.65179359743615,452.90429957980086,1 45535U 20025E   26151.88532456  .00012591  00000+0  34075-3 0  9996,2 45535  53.0727   1.8153 0001649  80.7313 279.3876 15.38083132338952
STARLINK-1362,45538,53.1579,0.0004168,15.36442324,453.79101298064415,459.4884828777176,1 45538U 20025H   26151.97360738 -.00096319  00000+0 -26928-2 0  9990,2 45538  53.1579  72.4720 0004168 118.3960 241.7464 15.36442324337955
STARLINK-1368,45540,53.1588,0.0004688,15.36690085,452.70128053275766,459.10887838645885,1 45540U 20025K   26151.98707100  .00057341  00000+0  15754-2 0  9997,2 45540  53.1588  72.7810 0004688 101.8149 258.3380 15.36690085337943
STARLINK-1371,45542,53.044,0.0005333,15.60922988,381.38292520877076,388.5964761477144,1 45542U 20025M   26152.58335648  .00146395  00000+0  16909-2 0  9991,2 45542  53.0440  44.3725 0005333 108.7704 109.9623 15.60922988  5841
STARLINK-1372,45543,53.1565,0.0003918,15.37222024,451.65146449955955,457.0053844061613,1 45543U 20025N   26152.01298599  .00056420  00000+0  15242-2 0  9991,2 45543  53.1565  72.1800 0003918  90.2845 269.8608 15.37222024337050
STARLINK-1373,45544,53.0464,0.0003549,15.68943501,359.52902348914813,364.3131167073052,1 45544U 20025P   26152.11320264  .00064407  00000+0  54925-3 0  9994,2 45544  53.0464  42.6137 0003549  63.3115 296.8264 15.68943501338361
STARLINK-1327,45555,53.042,0.0004522,15.66445555,366.03346819713715,372.1356553776177,1 45555U 20025AA  26151.88943556  .00054151  00000+0  51250-3 0  9997,2 45555  53.0420  20.7532 0004522  63.5581 296.5897 15.66445555338646
STARLINK-1356,45564,53.0434,6.99e-05,15.64515127,374.16158857781465,375.1056259087063,1 45564U 20025AK  26152.58335648  .00093125  00000+0  94367-3 0  9992,2 45564  53.0434  30.4008 0000699 108.9206 129.8469 15.64515127  5876
STARLINK-1357,45565,53.0458,0.0006211,15.6858294,358.7670041685478,367.14078727921606,1 45565U 20025AL  26151.95375894  .00065508  00000+0  56645-3 0  9991,2 45565  53.0458 350.4315 0006211 102.7541 257.4169 15.68582940339088
STARLINK-1361,45567,53.044,5.82e-05,15.61192524,383.8176849583433,384.6048222950649,1 45567U 20025AN  26152.14086871  .00103016  00000+0  11863-2 0  9998,2 45567  53.0440  30.7239 0000582 154.6724 205.4317 15.61192524338533
STARLINK-1363,45568,53.0178,0.0007364,16.45563244,146.2371284311157,155.85330800210522,1 45568U 20025AP  26152.73507564  .09883348  12554-4  24468-3 0  9991,2 45568  53.0178 328.0597 0007364 287.1114  72.9127 16.45563244339443
STARLINK-1366,45569,53.0288,0.0009357,16.11621243,236.20468818242625,248.59436023382932,1 45569U 20025AQ  26153.01362833  .00741968  31861-3  68701-3 0  9993,2 45569  53.0288 329.8315 0009357 292.9379  67.0667 16.11621243339445
STARLINK-1376,45570,53.1574,0.0004812,15.37564734,450.0258276158729,456.6004152127216,1 45570U 20025AR  26151.99129366  .00053566  00000+0  14321-2 0  9997,2 45570  53.1574  48.6995 0004812  89.2599 270.8956 15.37564734338282
STARLINK-1320,45572,53.0429,0.0006995,15.84723337,312.4205447460545,321.78718671721344,1 45572U 20025AT  26152.58335648  .00146116  00000+0  60957-3 0  9998,2 45572  53.0429 287.1221 0006995 311.2861 122.8660 15.84723337  5847
STARLINK-1321,45573,53.0437,0.0003487,15.6210535,379.2194712868968,383.93369553996854,1 45573U 20025AU  26151.89862612  .00112927  00000+0  12530-2 0  9994,2 45573  53.0437  15.8546 0003487 116.1634 243.9738 15.62105350338414
STARLINK-1331,45578,53.0471,0.000413,15.61978741,379.1499464160079,384.73377155352864,1 45578U 20025AZ  26152.17703200  .00103321  00000+0  11538-2 0  9993,2 45578  53.0471  21.3814 0004130  89.2190 270.9297 15.61978741338679
STARLINK-1333,45580,53.1581,0.0002788,15.34577654,460.2681869611715,464.08234508070564,1 45580U 20025BB  26152.09054455  .00054555  00000+0  16049-2 0  9994,2 45580  53.1581  49.5992 0002788  95.6963 264.4358 15.34577654338281
STARLINK-1335,45581,53.155,0.0003983,15.36073973,455.0096318428932,460.4550853739611,1 45581U 20025BC  26152.12760136  .00056647  00000+0  15878-2 0  9992,2 45581  53.1550  46.2276 0003983 111.2418 248.9011 15.36073973338320
STARLINK-1337,45582,53.0461,0.0005686,15.73348291,345.5101817849254,353.1606634239115,1 45582U 20025BD  26152.59359405  .00073711  00000+0  52121-3 0  9991,2 45582  53.0461   9.2178 0005686  89.9395 270.2275 15.73348291338866
STARLINK-1347,45586,53.0391,0.0002896,15.6777394,363.3198222592682,367.22560516544945,1 45586U 20025BH  26152.49703308  .00060735  00000+0  54387-3 0  9997,2 45586  53.0391 339.9207 0002896 115.7777 244.3537 15.67773940339264
STARLINK-1364,45589,53.0436,0.0001263,15.68501333,362.33628427122585,364.0391428938774,1 45589U 20025BL  26151.93437846  .00059901  00000+0  52091-3 0  9992,2 45589  53.0436  19.4264 0001263 118.3771 241.7373 15.68501333338668
STARLINK-1365,45590,53.0469,0.0003728,15.57919136,391.1557803483083,396.2048473375098,1 45590U 20025BM  26152.13943931  .00094588  00000+0  12350-2 0  9997,2 45590  53.0469  52.0460 0003728  77.7769 282.3659 15.57919136338244
STARLINK-1443,45660,53.1354,0.0003626,15.31820186,467.89847753956474,472.8650233373828,1 45660U 20035D   26152.00915178  .00050989  00000+0  16373-2 0  9990,2 45660  53.1354  38.5795 0003626  82.1478 277.9935 15.31820186331507
STARLINK-1446,45663,53.023,0.000301,15.47148658,423.0242077378871,427.1197395400177,1 45663U 20035G   26152.45883513  .00038730  00000+0  75553-3 0  9995,2 45663  53.0230 320.2509 0003010 155.5212 204.5938 15.47148658332621
STARLINK-1448,45665,53.0445,0.0005606,15.67429402,362.47995118477866,370.0417700661119,1 45665U 20035J   26152.59477227  .00060486  00000+0  54902-3 0  9991,2 45665  53.0445   3.4773 0005606  83.9516 276.2138 15.67429402332021
STARLINK-1451,45668,53.0519,0.0002706,15.13854132,522.5916687282797,526.3273539602187,1 45668U 20035M   26152.02955725  .00024612  00000+0  13573-2 0  9995,2 45668  53.0519  48.6221 0002706  94.0849 266.0453 15.13854132331350
STARLINK-1452,45669,53.0262,0.0001802,15.57618666,393.3307186802349,395.7715954920486,1 45669U 20035N   26152.50141027  .00119918  00000+0  15769-2 0  9994,2 45669  53.0262 338.6222 0001802 277.6570  82.4236 15.57618666332375
STARLINK-1453,45670,53.0403,0.0001325,15.67802718,364.29670293657364,366.08368464292835,1 45670U 20035P   26152.50059452  .00067462  00000+0  60241-3 0  9998,2 45670  53.0403 324.2538 0001325 212.3431 147.7503 15.67802718332463
STARLINK-1454,45671,53.0437,0.0002282,15.65846246,369.2659556357812,372.3461732503929,1 45671U 20035Q   26151.89125995  .00062241  00000+0  60218-3 0  9990,2 45671  53.0437   8.0925 0002282  55.8899 304.2332 15.65846246331897
STARLINK-1456,45673,53.0427,0.0005176,15.64823851,370.2506345733218,377.24018324302415,1 45673U 20035S   26151.98190838  .00053686  00000+0  54206-3 0  9993,2 45673  53.0427   2.1750 0005176 133.7732 226.3711 15.64823851332001
STARLINK-1458,45675,53.0471,0.0002921,15.55648192,398.28909708782794,402.2490419136311,1 45675U 20035U   26151.96653582  .00111006  00000+0  15727-2 0  9998,2 45675  53.0471  16.4047 0002921  74.3606 285.7726 15.55648192331764
STARLINK-1460,45676,53.1589,0.0003886,15.34380833,460.1018365079108,465.41858181887255,1 45676U 20035V   26152.06534864  .00053001  00000+0  15694-2 0  9995,2 45676  53.1589  36.8955 0003886 129.6863 230.4483 15.34380833331499
STARLINK-1392,45677,53.1531,0.0002873,15.37596719,451.2557343916151,455.1810311945683,1 45677U 20035W   26151.96769812  .00056865  00000+0  15177-2 0  9994,2 45677  53.1531  36.1503 0002873 134.7965 225.3273 15.37596719331534
STARLINK-1394,45679,53.0408,0.0004993,15.64548717,371.16534461251285,377.9085648236942,1 45679U 20035Y   26151.98368530  .00074331  00000+0  75471-3 0  9992,2 45679  53.0408 352.4335 0004993 140.7342 219.4035 15.64548717332138
STARLINK-1402,45685,53.0415,0.0005638,15.57053151,392.37156586588753,400.0102980419588,1 45685U 20035AE  26151.82920024  .00057411  00000+0  78022-3 0  9999,2 45685  53.0415 343.6294 0005638 159.3638 200.7602 15.57053151332251
STARLINK-1404,45686,53.1577,0.0004232,15.43660478,432.43338466865225,438.2002919974175,1 45686U 20035AF  26151.92419590  .00067444  00000+0  14695-2 0  9994,2 45686  53.1577  18.2995 0004232 145.3213 214.8071 15.43660478331782
STARLINK-1413,45689,53.1585,0.0002482,15.34398393,461.0101188208246,464.4059142870419,1 45689U 20035AJ  26152.58335648  .00078414  00000+0  23078-2 0  9995,2 45689  53.1585  19.1167 0002482 153.7441 335.2421 15.34398393  5820
STARLINK-1417,45693,53.0504,0.0005865,15.16430762,512.5945188998867,520.6820903322023,1 45693U 20035AN  26151.94254573  .00031107  00000+0  15893-2 0  9990,2 45693  53.0504  35.8074 0005865 110.4822 249.6802 15.16430762331514
